{
    "type": "FeatureCollection",
    "features": [
        {
            "type": "Feature",
            "geometry": {
                "type": "Polygon",
                "coordinates": [
                    [
                        [
                            -71.689241,
                            -31.177153
                        ],
                        [
                            -71.018725,
                            -31.177153
                        ],
                        [
                            -70.899373,
                            -30.687701
                        ],
                        [
                            -71.724052,
                            -30.706231
                        ],
                        [
                            -71.689241,
                            -30.949639
                        ],
                        [
                            -71.689241,
                            -31.177153
                        ]
                    ]
                ]
            },
            "properties": {
                "label": "Punitaqui - Coquimbo, Chile"
            }
        }
    ]
}